{
  "type": "FeatureCollection",
  "features": [
    {
      "type": "Feature",
      "properties": {
        "norad_id": 34350,
        "name": "IRIDIUM 33 DEB",
        "group": "iridium-33-debris",
        "lat": 40.28169658846585,
        "lon": -175.90301169902634,
        "alt_km": 724.1300563135801,
        "timestamp": "2025-12-02T13:52:17.646100+00:00",
        "meta_object_name": "IRIDIUM 33 DEB",
        "meta_object_id": "1997-051ES",
        "meta_epoch": "2025-12-02T01:52:09.567264",
        "meta_mean_motion": 14.45347269,
        "meta_eccentricity": 0.00217178,
        "meta_inclination": 86.3283,
        "meta_ra_of_asc_node": 7.4335,
        "meta_arg_of_pericenter": 168.9655,
        "meta_mean_anomaly": 250.2306,
        "meta_ephemeris_type": 0,
        "meta_classification_type": "U",
        "meta_norad_cat_id": 34350,
        "meta_element_set_no": 999,
        "meta_rev_at_epoch": 88139,
        "meta_bstar": 0.0003667284,
        "meta_mean_motion_dot": 1.312e-05,
        "meta_mean_motion_ddot": 0,
        "tle_line1": "1 34350U 97051ES  25336.07788851  .00001312  00000+0  36673-3 0  9994",
        "tle_line2": "2 34350  86.3283   7.4335 0021717 168.9655 250.2306 14.45347269881399"
      },
      "geometry": {
        "type": "Point",
        "coordinates": [
          -175.90301169902634,
          40.28169658846585
        ]
      }
    },
    {
      "type": "Feature",
      "properties": {
        "norad_id": 34366,
        "name": "IRIDIUM 33 DEB",
        "group": "iridium-33-debris",
        "lat": 27.01661278840118,
        "lon": -128.1230396384942,
        "alt_km": 697.5290825202974,
        "timestamp": "2025-12-02T13:52:17.646110+00:00",
        "meta_object_name": "IRIDIUM 33 DEB",
        "meta_object_id": "1997-051FJ",
        "meta_epoch": "2025-12-02T06:53:50.672256",
        "meta_mean_motion": 14.53895801,
        "meta_eccentricity": 0.00216252,
        "meta_inclination": 86.3709,
        "meta_ra_of_asc_node": 53.8577,
        "meta_arg_of_pericenter": 173.4033,
        "meta_mean_anomaly": 259.5233,
        "meta_ephemeris_type": 0,
        "meta_classification_type": "U",
        "meta_norad_cat_id": 34366,
        "meta_element_set_no": 999,
        "meta_rev_at_epoch": 88030,
        "meta_bstar": 0.0015729365,
        "meta_mean_motion_dot": 6.655e-05,
        "meta_mean_motion_ddot": 0,
        "tle_line1": "1 34366U 97051FJ  25336.28739204  .00006655  00000+0  15729-2 0  9995",
        "tle_line2": "2 34366  86.3709  53.8577 0021625 173.4033 259.5233 14.53895801880301"
      },
      "geometry": {
        "type": "Point",
        "coordinates": [
          -128.1230396384942,
          27.01661278840118
        ]
      }
    },
    {
      "type": "Feature",
      "properties": {
        "norad_id": 34375,
        "name": "IRIDIUM 33 DEB",
        "group": "iridium-33-debris",
        "lat": -55.8953400156723,
        "lon": -178.4931237336033,
        "alt_km": 899.8194698234138,
        "timestamp": "2025-12-02T13:52:17.646120+00:00",
        "meta_object_name": "IRIDIUM 33 DEB",
        "meta_object_id": "1997-051FT",
        "meta_epoch": "2025-12-02T01:18:17.719200",
        "meta_mean_motion": 14.17961976,
        "meta_eccentricity": 0.01023658,
        "meta_inclination": 86.4333,
        "meta_ra_of_asc_node": 187.0026,
        "meta_arg_of_pericenter": 160.3927,
        "meta_mean_anomaly": 351.7564,
        "meta_ephemeris_type": 0,
        "meta_classification_type": "U",
        "meta_norad_cat_id": 34375,
        "meta_element_set_no": 999,
        "meta_rev_at_epoch": 86560,
        "meta_bstar": 0.00046830706,
        "meta_mean_motion_dot": 1.028e-05,
        "meta_mean_motion_ddot": 0,
        "tle_line1": "1 34375U 97051FT  25336.05437175  .00001028  00000+0  46831-3 0  9990",
        "tle_line2": "2 34375  86.4333 187.0026 0102365 160.3927 351.7564 14.17961976865607"
      },
      "geometry": {
        "type": "Point",
        "coordinates": [
          -178.4931237336033,
          -55.8953400156723
        ]
      }
    },
    {
      "type": "Feature",
      "properties": {
        "norad_id": 34376,
        "name": "IRIDIUM 33 DEB",
        "group": "iridium-33-debris",
        "lat": 49.04254715264655,
        "lon": -173.16784788583007,
        "alt_km": 675.2669590232472,
        "timestamp": "2025-12-02T13:52:17.646131+00:00",
        "meta_object_name": "IRIDIUM 33 DEB",
        "meta_object_id": "1997-051FU",
        "meta_epoch": "2025-12-02T03:25:12.488160",
        "meta_mean_motion": 14.62320389,
        "meta_eccentricity": 0.00259524,
        "meta_inclination": 86.2999,
        "meta_ra_of_asc_node": 11.3033,
        "meta_arg_of_pericenter": 203.051,
        "meta_mean_anomaly": 156.9539,
        "meta_ephemeris_type": 0,
        "meta_classification_type": "U",
        "meta_norad_cat_id": 34376,
        "meta_element_set_no": 999,
        "meta_rev_at_epoch": 87852,
        "meta_bstar": 0.0016838438,
        "meta_mean_motion_dot": 8.565e-05,
        "meta_mean_motion_ddot": 0,
        "tle_line1": "1 34376U 97051FU  25336.14250565  .00008565  00000+0  16838-2 0  9993",
        "tle_line2": "2 34376  86.2999  11.3033 0025952 203.0510 156.9539 14.62320389878529"
      },
      "geometry": {
        "type": "Point",
        "coordinates": [
          -173.16784788583007,
          49.04254715264655
        ]
      }
    },
    {
      "type": "Feature",
      "properties": {
        "norad_id": 34486,
        "name": "IRIDIUM 33 DEB",
        "group": "iridium-33-debris",
        "lat": -42.90001178592456,
        "lon": -159.92877908328649,
        "alt_km": 586.9727544277748,
        "timestamp": "2025-12-02T13:52:17.646141+00:00",
        "meta_object_name": "IRIDIUM 33 DEB",
        "meta_object_id": "1997-051GB",
        "meta_epoch": "2025-12-02T03:28:52.308768",
        "meta_mean_motion": 14.95027296,
        "meta_eccentricity": 0.00126834,
        "meta_inclination": 86.3954,
        "meta_ra_of_asc_node": 16.9124,
        "meta_arg_of_pericenter": 147.5491,
        "meta_mean_anomaly": 266.6737,
        "meta_ephemeris_type": 0,
        "meta_classification_type": "U",
        "meta_norad_cat_id": 34486,
        "meta_element_set_no": 999,
        "meta_rev_at_epoch": 88828,
        "meta_bstar": 0.0024552903,
        "meta_mean_motion_dot": 0.00026994,
        "meta_mean_motion_ddot": 0,
        "tle_line1": "1 34486U 97051GB  25336.14504987  .00026994  00000+0  24553-2 0  9994",
        "tle_line2": "2 34486  86.3954  16.9124 0012683 147.5491 266.6737 14.95027296888282"
      },
      "geometry": {
        "type": "Point",
        "coordinates": [
          -159.92877908328649,
          -42.90001178592456
        ]
      }
    },
    {
      "type": "Feature",
      "properties": {
        "norad_id": 34487,
        "name": "IRIDIUM 33 DEB",
        "group": "iridium-33-debris",
        "lat": -14.064555599124574,
        "lon": 15.834408297158319,
        "alt_km": 775.1626322418633,
        "timestamp": "2025-12-02T13:52:17.646152+00:00",
        "meta_object_name": "IRIDIUM 33 DEB",
        "meta_object_id": "1997-051GC",
        "meta_epoch": "2025-12-01T15:14:00.920832",
        "meta_mean_motion": 14.43192153,
        "meta_eccentricity": 0.00317068,
        "meta_inclination": 86.3445,
        "meta_ra_of_asc_node": 17.1579,
        "meta_arg_of_pericenter": 163.7221,
        "meta_mean_anomaly": 324.8136,
        "meta_ephemeris_type": 0,
        "meta_classification_type": "U",
        "meta_norad_cat_id": 34487,
        "meta_element_set_no": 999,
        "meta_rev_at_epoch": 88088,
        "meta_bstar": 0.0002149908,
        "meta_mean_motion_dot": 7.47e-06,
        "meta_mean_motion_ddot": 0,
        "tle_line1": "1 34487U 97051GC  25335.63473288  .00000747  00000+0  21499-3 0  9992",
        "tle_line2": "2 34487  86.3445  17.1579 0031706 163.7221 324.8136 14.43192153880889"
      },
      "geometry": {
        "type": "Point",
        "coordinates": [
          15.834408297158319,
          -14.064555599124574
        ]
      }
    },
    {
      "type": "Feature",
      "properties": {
        "norad_id": 34488,
        "name": "IRIDIUM 33 DEB",
        "group": "iridium-33-debris",
        "lat": 68.08686027599724,
        "lon": 121.63828698637589,
        "alt_km": 474.3302423866762,
        "timestamp": "2025-12-02T13:52:17.646162+00:00",
        "meta_object_name": "IRIDIUM 33 DEB",
        "meta_object_id": "1997-051GD",
        "meta_epoch": "2025-12-01T09:03:02.520864",
        "meta_mean_motion": 15.25513419,
        "meta_eccentricity": 0.00159486,
        "meta_inclination": 86.3247,
        "meta_ra_of_asc_node": 311.4245,
        "meta_arg_of_pericenter": 69.089,
        "meta_mean_anomaly": 291.2062,
        "meta_ephemeris_type": 0,
        "meta_classification_type": "U",
        "meta_norad_cat_id": 34488,
        "meta_element_set_no": 999,
        "meta_rev_at_epoch": 89066,
        "meta_bstar": 0.005113685,
        "meta_mean_motion_dot": 0.00132074,
        "meta_mean_motion_ddot": 0,
        "tle_line1": "1 34488U 97051GD  25335.37711251  .00132074  00000+0  51137-2 0  9999",
        "tle_line2": "2 34488  86.3247 311.4245 0015948  69.0890 291.2062 15.25513419890665"
      },
      "geometry": {
        "type": "Point",
        "coordinates": [
          121.63828698637589,
          68.08686027599724
        ]
      }
    }
  ]
}